COSMOS 2433 (720)       
1 32275U 07052A   25054.27231176 -.00000057  00000+0  00000+0 0  9999
2 32275  65.8296 332.0069 0002970 280.0017  79.9973  2.13103964134850
COSMOS 2432 (719)       
1 32276U 07052B   25054.48914641 -.00000056  00000+0  00000+0 0  9997
2 32276  65.8449 332.1182 0011372 328.3289 143.4700  2.13103225134889
COSMOS 2434 (721)       
1 32393U 07065A   25054.97806203  .00000062  00000+0  00000+0 0  9995
2 32393  64.3182 208.0524 0004369  74.0978 359.0841  2.13101342133581
COSMOS 2436 (723)       
1 32395U 07065C   25054.66305829  .00000065  00000+0  00000+0 0  9994
2 32395  64.3267 208.1303 0017305   8.3280 317.5189  2.13100197133528
COSMOS 2456 (730)       
1 36111U 09070A   25054.85080752  .00000047  00000+0  00000+0 0  9998
2 36111  64.7362  87.3247 0005978 300.8367 189.8909  2.13103671118232
COSMOS 2457 (733)       
1 36112U 09070B   25054.59866447  .00000044  00000+0  00000+0 0  9990
2 36112  64.7210  87.1867 0003175 194.5247 234.5891  2.13101111118238
COSMOS 2460 (732)       
1 36402U 10007C   25052.32394659 -.00000065  00000+0  00000+0 0  9998
2 36402  65.6820 330.6936 0002135 347.6279 131.6150  2.13106212116488
COSMOS 2476 (744)       
1 37867U 11064A   25054.42135304  .00000043  00000+0  00000+0 0  9996
2 37867  65.0038  89.0674 0024861 240.2643 191.7996  2.13101591103561
COSMOS 2477 (745)       
1 37868U 11064B   25054.79588279  .00000047  00000+0  00000+0 0  9994
2 37868  65.0109  89.1296 0022039 241.6610 297.1112  2.13103012103567
COSMOS 2475 (743)       
1 37869U 11064C   25054.20948572  .00000041  00000+0  00000+0 0  9991
2 37869  65.0175  89.1666 0027421 254.3277 151.8289  2.13101700103565
COSMOS 2485 (747)       
1 39155U 13019A   25055.20646427  .00000051  00000+0  00000+0 0  9999
2 39155  65.1593  89.6770 0025162 236.3960 123.4411  2.13104457 92099
COSMOS 2492 (754)       
1 39620U 14012A   25054.22411251 -.00000055  00000+0  00000+0 0  9991
2 39620  65.5610 330.1701 0014176 324.3655  35.5749  2.13103193 85039
COSMOS 2500 (755)       
1 40001U 14032A   25054.40015551 -.00000054  00000+0  00000+0 0  9990
2 40001  65.4974 329.9496 0005097 213.6689 146.3343  2.13105961 83250
COSMOS 2501 (702K)      
1 40315U 14075A   25054.18687424  .00000065  00000+0  00000+0 0  9995
2 40315  63.6185 206.9597 0019539 204.4337 155.4540  2.13101343 79640
COSMOS 2514 (751)       
1 41330U 16008A   25053.70098271 -.00000057  00000+0  00000+0 0  9996
2 41330  65.2904 329.4192 0009201 217.9664 142.0041  2.13102638 70405
COSMOS 2522 (752)       
1 42939U 17055A   25054.94798861  .00000062  00000+0  00000+0 0  9999
2 42939  64.0798 208.1686 0006341 227.5198 132.4051  2.13101820 57783
COSMOS 2527 (756)       
1 43508U 18053A   25053.96933420  .00000039  00000+0  00000+0 0  9998
2 43508  65.3178  89.9231 0009807 241.9609 118.0139  2.13102308 52065
COSMOS 2529 (757)       
1 43687U 18086A   25054.53687002  .00000067  00000+0  00000+0 0  9999
2 43687  64.2956 208.7630 0007228 257.4800 102.4196  2.13102018 49085
COSMOS 2534 (758)       
1 44299U 19030A   25054.13933544  .00000070  00000+0  00000+0 0  9994
2 44299  64.3690 208.7535 0009254 286.0904 263.0969  2.13102273 44719
COSMOS 2544 (759)       
1 44850U 19088A   25053.91361663  .00000038  00000+0  00000+0 0  9996
2 44850  65.3049  89.7573 0015521 258.8252 101.0740  2.13102089 40503
COSMOS 2545 (760)       
1 45358U 20018A   25054.11025797 -.00000055  00000+0  00000+0 0  9993
2 45358  64.6286 329.2112 0008936 256.4129 103.5237  2.13102489 38455
COSMOS 2547 (705K)      
1 46805U 20075A   25054.76537850  .00000065  00000+0  00000+0 0  9993
2 46805  64.5987 208.4488 0006143 231.3690 128.5556  2.13102995 33714
COSMOS 2557 (706K)      
1 52984U 22075A   25053.52448010 -.00000061  00000+0  00000+0 0  9999
2 52984  64.5625 331.3386 0012560 285.2107  74.6832  2.13101808 20493
COSMOS 2559 (707K)      
1 54031U 22130A   25054.40665982 -.00000057  00000+0  00000+0 0  9998
2 54031  64.5342 331.4166 0005896 234.2748 125.7039  2.13101224 18485
COSMOS 2564 (761)       
1 54377U 22161A   25053.65759878  .00000074  00000+0  00000+0 0  9997
2 54377  64.7402 208.6356 0008363 206.9088 153.0312  2.13102044 17419
COSMOS 2569 (703K)      
1 57517U 23114A   25054.61154500  .00000045  00000+0  00000+0 0  9991
2 57517  65.0356  88.7924 0012618 291.6746  68.2665  2.13104152 12064
